NORAD_CAT_ID,OBJECT_NAME,OBJECT_TYPE,EPOCH,MEAN_MOTION,ECCENTRICITY,INCLINATION,RA_OF_ASC_NODE,ARG_OF_PERICENTER,MEAN_ANOMALY,BSTAR,MEAN_MOTION_DOT,MEAN_MOTION_DDOT,TLE_LINE0,TLE_LINE1,TLE_LINE2,SEMIMAJOR_AXIS,PERIOD,APOGEE,PERIGEE,DECAYED
51142.0,STARLINK-3369,PAYLOAD,2024-02-20 06:08:53,15.08841628,0.0001646,53.2167,49.0358,90.6357,269.4824,7.2472e-05,8.66e-06,0.0,0 STARLINK-3369,1 51142U 22005AQ  24051.25617035  .00000866  00000-0  72472-4 0  9999,2 51142  53.2167  49.0358 0001646  90.6357 269.4824 15.08841628115886,6917.875,95.437,540.879,538.602,0.0
51142.0,STARLINK-3369,PAYLOAD,2024-02-20 17:16:35,15.08840194,0.0001577,53.2164,46.9538,95.3813,264.736,6.3816e-05,7.28e-06,0.0,0 STARLINK-3369,1 51142U 22005AQ  24051.71985099  .00000728  00000-0  63816-4 0  9997,2 51142  53.2164  46.9538 0001577  95.3813 264.7360 15.08840194115959,6917.88,95.438,540.836,538.654,0.0
51142.0,STARLINK-3369,PAYLOAD,2024-02-21 04:24:17,15.0884127,0.0001509,53.2159,44.872,97.7509,262.3654,0.00016315,2.31e-05,0.0,0 STARLINK-3369,1 51142U 22005AQ  24052.18353100  .00002310  00000-0  16315-3 0  9991,2 51142  53.2159  44.8720 0001509  97.7509 262.3654 15.08841270117178,6917.877,95.437,540.785,538.698,0.0
51142.0,STARLINK-3369,PAYLOAD,2024-02-21 05:59:40,15.08841196,0.0001451,53.2158,44.5751,95.2986,264.8172,0.00017743,2.537e-05,0.0,0 STARLINK-3369,1 51142U 22005AQ  24052.24977117  .00002537  00000-0  17743-3 0  9995,2 51142  53.2158  44.5751 0001451  95.2986 264.8172 15.08841196116039,6917.877,95.437,540.746,538.738,0.0
51142.0,STARLINK-3369,PAYLOAD,2024-02-22 04:15:04,15.08837496,0.0001816,53.2178,40.4107,99.4901,260.6297,5.7414e-05,6.26e-06,0.0,0 STARLINK-3369,1 51142U 22005AQ  24053.17713517  .00000626  00000-0  57414-4 0  9997,2 51142  53.2178  40.4107 0001816  99.4901 260.6297 15.08837496117322,6917.888,95.438,541.009,538.497,0.0
51142.0,STARLINK-3369,PAYLOAD,2024-02-22 05:50:27,15.08840172,0.0001525,53.2179,40.1143,99.3332,260.7832,4.5788e-05,4.41e-06,0.0,0 STARLINK-3369,1 51142U 22005AQ  24053.24337330  .00000441  00000-0  45788-4 0  9996,2 51142  53.2179  40.1143 0001525  99.3332 260.7832 15.08840172116188,6917.88,95.438,540.8,538.69,0.0
51142.0,STARLINK-3369,PAYLOAD,2024-02-23 04:05:51,15.08840545,0.0001461,53.2179,35.9501,95.5594,264.5564,8.9101e-05,1.13e-05,0.0,0 STARLINK-3369,1 51142U 22005AQ  24054.17073235  .00001130  00000-0  89101-4 0  9993,2 51142  53.2179  35.9501 0001461  95.5594 264.5564 15.08840545116329,6917.879,95.438,540.754,538.733,0.0
51142.0,STARLINK-3369,PAYLOAD,2024-02-23 15:13:33,15.08843962,0.0001489,53.2182,33.8681,94.2591,265.8572,5.4417e-05,5.78e-06,0.0,0 STARLINK-3369,1 51142U 22005AQ  24054.63441148  .00000578  00000-0  54417-4 0  9993,2 51142  53.2182  33.8681 0001489  94.2591 265.8572 15.08843962117546,6917.868,95.437,540.763,538.703,0.0
51142.0,STARLINK-3369,PAYLOAD,2024-02-23 21:35:06,15.08839464,0.0001431,53.2184,32.6829,97.9026,262.2128,7.2478e-05,8.66e-06,0.0,0 STARLINK-3369,1 51142U 22005AQ  24054.89937506  .00000866  00000-0  72478-4 0  9996,2 51142  53.2184  32.6829 0001431  97.9026 262.2128 15.08839464116436,6917.882,95.438,540.737,538.757,0.0
51142.0,STARLINK-3369,PAYLOAD,2024-02-24 03:56:38,15.08838523,0.000144,53.2186,31.4931,97.5509,262.5647,5.4845e-05,5.85e-06,0.0,0 STARLINK-3369,1 51142U 22005AQ  24055.16433615  .00000585  00000-0  54845-4 0  9995,2 51142  53.2186  31.4931 0001440  97.5509 262.5647 15.08838523117627,6917.885,95.438,540.746,538.754,0.0
51142.0,STARLINK-3369,PAYLOAD,2024-02-24 07:07:24,15.08842881,0.0001515,53.2195,30.8977,97.4835,262.633,9.2092e-05,1.178e-05,0.0,0 STARLINK-3369,1 51142U 22005AQ  24055.29681304  .00001178  00000-0  92092-4 0  9994,2 51142  53.2195  30.8977 0001515  97.4835 262.6330 15.08842881116490,6917.872,95.437,540.785,538.689,0.0
51142.0,STARLINK-3369,PAYLOAD,2024-02-24 23:01:16,15.08835839,0.0001655,53.2211,27.9251,104.0312,256.0864,5.1102e-05,5.25e-06,0.0,0 STARLINK-3369,1 51142U 22005AQ  24055.95921897  .00000525  00000-0  51102-4 0  9993,2 51142  53.2211  27.9251 0001655 104.0312 256.0864 15.08835839116596,6917.893,95.438,540.903,538.613,0.0
51142.0,STARLINK-3369,PAYLOAD,2024-02-25 05:22:48,15.08839562,0.0001753,53.2209,26.7348,100.3683,259.7507,6.9807e-05,8.23e-06,0.0,0 STARLINK-3369,1 51142U 22005AQ  24056.22417683  .00000823  00000-0  69807-4 0  9999,2 51142  53.2209  26.7348 0001753 100.3683 259.7507 15.08839562117789,6917.882,95.438,540.959,538.534,0.0
51142.0,STARLINK-3369,PAYLOAD,2024-02-25 06:58:11,15.08843391,0.0001711,53.2199,26.437,98.3259,261.7927,0.0001007,1.315e-05,0.0,0 STARLINK-3369,1 51142U 22005AQ  24056.29041350  .00001315  00000-0  10070-3 0  9994,2 51142  53.2199  26.4370 0001711  98.3259 261.7927 15.08843391116646,6917.87,95.437,540.919,538.551,0.0
51142.0,STARLINK-3369,PAYLOAD,2024-02-25 14:55:07,15.08844239,0.0001674,53.219,24.948,86.1674,273.951,9.6337e-05,1.246e-05,0.0,0 STARLINK-3369,1 51142U 22005AQ  24056.62161332  .00001246  00000-0  96337-4 0  9998,2 51142  53.2190  24.9480 0001674  86.1674 273.9510 15.08844239116696,6917.867,95.437,540.89,538.574,0.0
51142.0,STARLINK-3369,PAYLOAD,2024-02-26 06:48:58,15.08853413,0.000172,53.2202,21.9758,87.4581,272.6608,0.00014323,1.993e-05,0.0,0 STARLINK-3369,1 51142U 22005AQ  24057.28400617  .00001993  00000-0  14323-3 0  9996,2 51142  53.2202  21.9758 0001720  87.4581 272.6608 15.08853413117945,6917.839,95.437,540.894,538.515,0.0
51142.0,STARLINK-3369,PAYLOAD,2024-02-27 03:28:59,15.08838161,0.0001718,53.219,18.1073,118.2825,241.834,1.081e-05,-1.16e-06,0.0,0 STARLINK-3369,1 51142U 22005AQ  24058.14513855 -.00000116  00000-0  10810-4 0  9996,2 51142  53.2190  18.1073 0001718 118.2825 241.8340 15.08838161118079,6917.886,95.438,540.94,538.563,0.0
51142.0,STARLINK-3369,PAYLOAD,2024-02-27 14:36:41,15.08843372,0.0001671,53.2195,16.0288,82.6173,277.5009,5.9414e-05,6.58e-06,0.0,0 STARLINK-3369,1 51142U 22005AQ  24058.60881691  .00000658  00000-0  59414-4 0  9996,2 51142  53.2195  16.0288 0001671  82.6173 277.5009 15.08843372116994,6917.87,95.437,540.891,538.579,0.0
51142.0,STARLINK-3369,PAYLOAD,2024-02-27 20:58:14,15.08840181,0.0001614,53.2182,14.8404,80.1099,280.0075,8.8975e-05,1.128e-05,0.0,0 STARLINK-3369,1 51142U 22005AQ  24058.87377822  .00001128  00000-0  88975-4 0  9998,2 51142  53.2182  14.8404 0001614  80.1099 280.0075 15.08840181117036,6917.88,95.438,540.861,538.628,0.0
51142.0,STARLINK-3369,PAYLOAD,2024-02-28 06:30:32,15.08854714,0.0001468,53.2177,13.0549,93.1903,266.9257,0.00022072,3.228e-05,0.0,0 STARLINK-3369,1 51142U 22005AQ  24059.27120966  .00003228  00000-0  22072-3 0  9996,2 51142  53.2177  13.0549 0001468  93.1903 266.9257 15.08854714118242,6917.835,95.437,540.716,538.685,0.0
51142.0,STARLINK-3369,PAYLOAD,2024-02-28 14:27:28,15.08845686,0.0001652,53.2191,11.5631,95.4995,264.6186,6.2743e-05,7.11e-06,0.0,0 STARLINK-3369,1 51142U 22005AQ  24059.60241131  .00000711  00000-0  62743-4 0  9995,2 51142  53.2191  11.5631 0001652  95.4995 264.6186 15.08845686117146,6917.863,95.437,540.871,538.585,0.0
51142.0,STARLINK-3369,PAYLOAD,2024-02-29 01:35:10,15.08842369,0.0001728,53.2196,9.4816,94.8976,265.2213,9.4087e-05,1.21e-05,0.0,0 STARLINK-3369,1 51142U 22005AQ  24060.06609612  .00001210  00000-0  94087-4 0  9990,2 51142  53.2196   9.4816 0001728  94.8976 265.2213 15.08842369118366,6917.873,95.437,540.934,538.543,0.0
51142.0,STARLINK-3369,PAYLOAD,2024-02-29 06:21:20,15.08841487,0.0001759,53.2194,8.5899,110.0464,250.0718,7.7194e-05,9.41e-06,0.0,0 STARLINK-3369,1 51142U 22005AQ  24060.26481591  .00000941  00000-0  77194-4 0  9996,2 51142  53.2194   8.5899 0001759 110.0464 250.0718 15.08841487117240,6917.876,95.437,540.958,538.524,0.0
51142.0,STARLINK-3369,PAYLOAD,2024-03-01 03:01:21,15.08838347,0.0001499,53.2188,4.7288,92.2223,267.8941,1.2676e-05,-8.6e-07,0.0,0 STARLINK-3369,1 51142U 22005AQ  24061.12594210 -.00000086  00000-0  12676-4 0  9990,2 51142  53.2188   4.7288 0001499  92.2223 267.8941 15.08838347118525,6917.885,95.438,540.787,538.713,0.0
51142.0,STARLINK-3369,PAYLOAD,2024-03-01 12:33:40,15.08841158,0.000146,53.2192,2.9432,89.8958,270.2201,-1.949e-05,-5.98e-06,0.0,0 STARLINK-3369,1 51142U 22005AQ  24061.52338124 -.00000598  00000-0 -19490-4 0  9994,2 51142  53.2192   2.9432 0001460  89.8958 270.2201 15.08841158117436,6917.877,95.437,540.752,538.732,0.0
51142.0,STARLINK-3369,PAYLOAD,2024-03-02 02:52:08,15.08842785,0.0001433,53.219,0.2665,95.7427,264.3729,9.2779e-05,1.189e-05,0.0,0 STARLINK-3369,1 51142U 22005AQ  24062.11953997  .00001189  00000-0  92779-4 0  9997,2 51142  53.2190   0.2665 0001433  95.7427 264.3729 15.08842785117526,6917.872,95.437,540.728,538.746,0.0
51142.0,STARLINK-3369,PAYLOAD,2024-03-03 02:42:55,15.08842848,0.0001518,53.2189,355.8114,102.1716,257.9446,0.00011538,1.549e-05,0.0,0 STARLINK-3369,1 51142U 22005AQ  24063.11314019  .00001549  00000-0  11538-3 0  9997,2 51142  53.2189 355.8114 0001518 102.1716 257.9446 15.08842848118828,6917.872,95.437,540.787,538.687,0.0
51142.0,STARLINK-3369,PAYLOAD,2024-03-04 12:06:00,15.08845304,0.0001297,53.2184,349.5665,88.8955,271.2186,7.6617e-05,9.32e-06,0.0,0 STARLINK-3369,1 51142U 22005AQ  24064.50417693  .00000932  00000-0  76617-4 0  9998,2 51142  53.2184 349.5665 0001297  88.8955 271.2186 15.08845304117888,6917.864,95.437,540.626,538.832,0.0
51142.0,STARLINK-3369,PAYLOAD,2024-03-05 02:24:29,15.08836133,0.000151,53.2181,346.8902,87.7648,272.3517,-5.3736e-06,-3.73e-06,0.0,0 STARLINK-3369,1 51142U 22005AQ  24065.10034347 -.00000373  00000-0 -53736-5 0  9995,2 51142  53.2181 346.8902 0001510  87.7648 272.3517 15.08836133119123,6917.892,95.438,540.802,538.713,0.0
51142.0,STARLINK-3369,PAYLOAD,2024-03-06 03:50:39,15.08846567,0.0001573,53.2186,342.129,83.1444,276.9727,5.8277e-05,6.4e-06,0.0,0 STARLINK-3369,1 51142U 22005AQ  24066.16018178  .00000640  00000-0  58277-4 0  9995,2 51142  53.2186 342.1290 0001573  83.1444 276.9727 15.08846567119282,6917.86,95.437,540.813,538.637,0.0
